[{"OBJECT_NAME":"ONEWEB-0634","OBJECT_ID":"2023-043AF","EPOCH":"2026-05-14T07:16:52.336128","MEAN_MOTION":13.1554979,"ECCENTRICITY":0.0001751,"INCLINATION":87.8977,"RA_OF_ASC_NODE":265.9829,"ARG_OF_PERICENTER":109.4637,"MEAN_ANOMALY":250.6683,"EPHEMERIS_TYPE":0,"CLASSIFICATION_TYPE":"U","NORAD_CAT_ID":56075,"ELEMENT_SET_NO":999,"REV_AT_EPOCH":15194,"BSTAR":-0.00011772,"MEAN_MOTION_DOT":-3.1e-07,"MEAN_MOTION_DDOT":0.0},{"OBJECT_NAME":"ONEWEB-0635","OBJECT_ID":"2023-043AG","EPOCH":"2026-05-14T07:10:02.901216","MEAN_MOTION":13.15548673,"ECCENTRICITY":0.0002155,"INCLINATION":87.8987,"RA_OF_ASC_NODE":265.9437,"ARG_OF_PERICENTER":97.6813,"MEAN_ANOMALY":262.4562,"EPHEMERIS_TYPE":0,"CLASSIFICATION_TYPE":"U","NORAD_CAT_ID":56076,"ELEMENT_SET_NO":999,"REV_AT_EPOCH":15197,"BSTAR":2.0492e-05,"MEAN_MOTION_DOT":2.1e-07,"MEAN_MOTION_DDOT":0.0},{"OBJECT_NAME":"ONEWEB-0636","OBJECT_ID":"2023-043AH","EPOCH":"2026-05-14T06:58:37.922016","MEAN_MOTION":13.15549038,"ECCENTRICITY":0.0002093,"INCLINATION":87.8977,"RA_OF_ASC_NODE":265.954,"ARG_OF_PERICENTER":98.941,"MEAN_ANOMALY":261.1957,"EPHEMERIS_TYPE":0,"CLASSIFICATION_TYPE":"U","NORAD_CAT_ID":56077,"ELEMENT_SET_NO":999,"REV_AT_EPOCH":15195,"BSTAR":0.0002276,"MEAN_MOTION_DOT":9.9e-07,"MEAN_MOTION_DDOT":0.0},{"OBJECT_NAME":"ONEWEB-0637","OBJECT_ID":"2023-043AJ","EPOCH":"2026-05-14T06:49:30.164160","MEAN_MOTION":13.15549252,"ECCENTRICITY":0.0002094,"INCLINATION":87.8976,"RA_OF_ASC_NODE":265.9726,"ARG_OF_PERICENTER":106.8977,"MEAN_ANOMALY":253.2384,"EPHEMERIS_TYPE":0,"CLASSIFICATION_TYPE":"U","NORAD_CAT_ID":56078,"ELEMENT_SET_NO":999,"REV_AT_EPOCH":15197,"BSTAR":0.00020488,"MEAN_MOTION_DOT":9e-07,"MEAN_MOTION_DDOT":0.0},{"OBJECT_NAME":"ONEWEB-0647","OBJECT_ID":"2023-043AK","EPOCH":"2026-05-13T08:48:21.905280","MEAN_MOTION":13.15546826,"ECCENTRICITY":0.0001969,"INCLINATION":87.8978,"RA_OF_ASC_NODE":266.1681,"ARG_OF_PERICENTER":95.1875,"MEAN_ANOMALY":264.948,"EPHEMERIS_TYPE":0,"CLASSIFICATION_TYPE":"U","NORAD_CAT_ID":56079,"ELEMENT_SET_NO":999,"REV_AT_EPOCH":15184,"BSTAR":0.0003616,"MEAN_MOTION_DOT":1.49e-06,"MEAN_MOTION_DDOT":0.0},{"OBJECT_NAME":"ONEWEB-0651","OBJECT_ID":"2023-043AL","EPOCH":"2026-05-14T06:35:48.690240","MEAN_MOTION":13.15549882,"ECCENTRICITY":0.0002117,"INCLINATION":87.8974,"RA_OF_ASC_NODE":265.9809,"ARG_OF_PERICENTER":102.1217,"MEAN_ANOMALY":258.0151,"EPHEMERIS_TYPE":0,"CLASSIFICATION_TYPE":"U","NORAD_CAT_ID":56080,"ELEMENT_SET_NO":999,"REV_AT_EPOCH":15316,"BSTAR":0.00069843,"MEAN_MOTION_DOT":2.76e-06,"MEAN_MOTION_DDOT":0.0},{"OBJECT_NAME":"ONEWEB-0718","OBJECT_ID":"2023-043AM","EPOCH":"2026-05-13T19:31:50.913408","MEAN_MOTION":13.15549068,"ECCENTRICITY":0.0001541,"INCLINATION":87.8975,"RA_OF_ASC_NODE":266.0536,"ARG_OF_PERICENTER":113.0301,"MEAN_ANOMALY":247.0992,"EPHEMERIS_TYPE":0,"CLASSIFICATION_TYPE":"U","NORAD_CAT_ID":56081,"ELEMENT_SET_NO":999,"REV_AT_EPOCH":15191,"BSTAR":0.00030817,"MEAN_MOTION_DOT":1.29e-06,"MEAN_MOTION_DDOT":0.0},{"OBJECT_NAME":"ONEWEB-0561","OBJECT_ID":"2023-068A","EPOCH":"2026-05-13T22:56:06.074304","MEAN_MOTION":13.20784451,"ECCENTRICITY":0.0002221,"INCLINATION":87.9161,"RA_OF_ASC_NODE":281.2705,"ARG_OF_PERICENTER":91.4435,"MEAN_ANOMALY":268.6953,"EPHEMERIS_TYPE":0,"CLASSIFICATION_TYPE":"U","NORAD_CAT_ID":56710,"ELEMENT_SET_NO":999,"REV_AT_EPOCH":14498,"BSTAR":-0.00011394,"MEAN_MOTION_DOT":-3.3e-07,"MEAN_MOTION_DDOT":0.0},{"OBJECT_NAME":"ONEWEB-0668","OBJECT_ID":"2023-068B","EPOCH":"2026-05-14T07:21:02.054592","MEAN_MOTION":13.16596163,"ECCENTRICITY":0.0001991,"INCLINATION":87.9107,"RA_OF_ASC_NODE":235.498,"ARG_OF_PERICENTER":116.8197,"MEAN_ANOMALY":243.3138,"EPHEMERIS_TYPE":0,"CLASSIFICATION_TYPE":"U","NORAD_CAT_ID":56711,"ELEMENT_SET_NO":999,"REV_AT_EPOCH":14732,"BSTAR":-8.4666e-05,"MEAN_MOTION_DOT":-2e-07,"MEAN_MOTION_DDOT":0.0},{"OBJECT_NAME":"ONEWEB-0676","OBJECT_ID":"2023-068C","EPOCH":"2026-05-14T07:32:27.466656","MEAN_MOTION":13.16594634,"ECCENTRICITY":0.0002339,"INCLINATION":87.9104,"RA_OF_ASC_NODE":235.5033,"ARG_OF_PERICENTER":99.6383,"MEAN_ANOMALY":260.5012,"EPHEMERIS_TYPE":0,"CLASSIFICATION_TYPE":"U","NORAD_CAT_ID":56712,"ELEMENT_SET_NO":999,"REV_AT_EPOCH":14724,"BSTAR":-0.00020536,"MEAN_MOTION_DOT":-6.6e-07,"MEAN_MOTION_DDOT":0.0},{"OBJECT_NAME":"ONEWEB-0677","OBJECT_ID":"2023-068D","EPOCH":"2026-05-14T07:44:50.053056","MEAN_MOTION":13.20882937,"ECCENTRICITY":0.0002216,"INCLINATION":87.9159,"RA_OF_ASC_NODE":281.1891,"ARG_OF_PERICENTER":105.5057,"MEAN_ANOMALY":254.6321,"EPHEMERIS_TYPE":0,"CLASSIFICATION_TYPE":"U","NORAD_CAT_ID":56713,"ELEMENT_SET_NO":999,"REV_AT_EPOCH":14533,"BSTAR":-0.00010533,"MEAN_MOTION_DOT":-3e-07,"MEAN_MOTION_DDOT":0.0},{"OBJECT_NAME":"ONEWEB-0678","OBJECT_ID":"2023-068E","EPOCH":"2026-05-13T09:38:34.210176","MEAN_MOTION":13.15549356,"ECCENTRICITY":0.0001874,"INCLINATION":87.8981,"RA_OF_ASC_NODE":266.1242,"ARG_OF_PERICENTER":90.4937,"MEAN_ANOMALY":269.6408,"EPHEMERIS_TYPE":0,"CLASSIFICATION_TYPE":"U","NORAD_CAT_ID":56714,"ELEMENT_SET_NO":999,"REV_AT_EPOCH":14471,"BSTAR":-0.00032845000000000004,"MEAN_MOTION_DOT":-1.11e-06,"MEAN_MOTION_DDOT":0.0},{"OBJECT_NAME":"ONEWEB-0679","OBJECT_ID":"2023-068F","EPOCH":"2026-05-14T06:33:10.025280","MEAN_MOTION":13.1659599,"ECCENTRICITY":0.0002428,"INCLINATION":87.9107,"RA_OF_ASC_NODE":235.5022,"ARG_OF_PERICENTER":113.1851,"MEAN_ANOMALY":246.9536,"EPHEMERIS_TYPE":0,"CLASSIFICATION_TYPE":"U","NORAD_CAT_ID":56715,"ELEMENT_SET_NO":999,"REV_AT_EPOCH":14726,"BSTAR":0.00027437,"MEAN_MOTION_DOT":1.18e-06,"MEAN_MOTION_DDOT":0.0},{"OBJECT_NAME":"ONEWEB-0680","OBJECT_ID":"2023-068G","EPOCH":"2026-05-14T06:13:48.286560","MEAN_MOTION":13.21823636,"ECCENTRICITY":0.000213,"INCLINATION":87.9251,"RA_OF_ASC_NODE":250.7199,"ARG_OF_PERICENTER":116.6542,"MEAN_ANOMALY":243.4811,"EPHEMERIS_TYPE":0,"CLASSIFICATION_TYPE":"U","NORAD_CAT_ID":56716,"ELEMENT_SET_NO":999,"REV_AT_EPOCH":14661,"BSTAR":0.00011596,"MEAN_MOTION_DOT":6.1e-07,"MEAN_MOTION_DDOT":0.0},{"OBJECT_NAME":"ONEWEB-0681","OBJECT_ID":"2023-068H","EPOCH":"2026-05-14T07:34:57.691200","MEAN_MOTION":13.21814447,"ECCENTRICITY":0.000322,"INCLINATION":87.9247,"RA_OF_ASC_NODE":250.7119,"ARG_OF_PERICENTER":96.0501,"MEAN_ANOMALY":264.1,"EPHEMERIS_TYPE":0,"CLASSIFICATION_TYPE":"U","NORAD_CAT_ID":56717,"ELEMENT_SET_NO":999,"REV_AT_EPOCH":14661,"BSTAR":0.0049565,"MEAN_MOTION_DOT":2.06e-05,"MEAN_MOTION_DDOT":0.0},{"OBJECT_NAME":"ONEWEB-0682","OBJECT_ID":"2023-068J","EPOCH":"2026-05-13T08:23:15.734688","MEAN_MOTION":13.1554653,"ECCENTRICITY":0.0001977,"INCLINATION":87.8983,"RA_OF_ASC_NODE":266.1363,"ARG_OF_PERICENTER":115.4872,"MEAN_ANOMALY":244.6463,"EPHEMERIS_TYPE":0,"CLASSIFICATION_TYPE":"U","NORAD_CAT_ID":56718,"ELEMENT_SET_NO":999,"REV_AT_EPOCH":14487,"BSTAR":0.00032871,"MEAN_MOTION_DOT":1.37e-06,"MEAN_MOTION_DDOT":0.0}]