ONEWEB-0634             
1 56075U 23043AF  26134.30338352 -.00000031  00000+0 -11772-3 0  9994
2 56075  87.8977 265.9829 0001751 109.4637 250.6683 13.15549790151940
ONEWEB-0635             
1 56076U 23043AG  26134.29864469  .00000021  00000+0  20492-4 0  9993
2 56076  87.8987 265.9437 0002155  97.6813 262.4562 13.15548673151979
ONEWEB-0636             
1 56077U 23043AH  26134.29071669  .00000099  00000+0  22760-3 0  9990
2 56077  87.8977 265.9540 0002093  98.9410 261.1957 13.15549038151950
ONEWEB-0637             
1 56078U 23043AJ  26134.28437690  .00000090  00000+0  20488-3 0  9996
2 56078  87.8976 265.9726 0002094 106.8977 253.2384 13.15549252151970
ONEWEB-0647             
1 56079U 23043AK  26133.36692020  .00000149  00000+0  36160-3 0  9994
2 56079  87.8978 266.1681 0001969  95.1875 264.9480 13.15546826151849
ONEWEB-0651             
1 56080U 23043AL  26134.27486910  .00000276  00000+0  69843-3 0  9991
2 56080  87.8974 265.9809 0002117 102.1217 258.0151 13.15549882153162
ONEWEB-0718             
1 56081U 23043AM  26133.81378372  .00000129  00000+0  30817-3 0  9999
2 56081  87.8975 266.0536 0001541 113.0301 247.0992 13.15549068151916
ONEWEB-0561             
1 56710U 23068A   26133.95562586 -.00000033  00000+0 -11394-3 0  9997
2 56710  87.9161 281.2705 0002221  91.4435 268.6953 13.20784451144981
ONEWEB-0668             
1 56711U 23068B   26134.30627378 -.00000020  00000+0 -84666-4 0  9998
2 56711  87.9107 235.4980 0001991 116.8197 243.3138 13.16596163147320
ONEWEB-0676             
1 56712U 23068C   26134.31420679 -.00000066  00000+0 -20536-3 0  9990
2 56712  87.9104 235.5033 0002339  99.6383 260.5012 13.16594634147244
ONEWEB-0677             
1 56713U 23068D   26134.32280154 -.00000030  00000+0 -10533-3 0  9991
2 56713  87.9159 281.1891 0002216 105.5057 254.6321 13.20882937145339
ONEWEB-0678             
1 56714U 23068E   26133.40178484 -.00000111  00000+0 -32845-3 0  9992
2 56714  87.8981 266.1242 0001874  90.4937 269.6408 13.15549356144715
ONEWEB-0679             
1 56715U 23068F   26134.27303270  .00000118  00000+0  27437-3 0  9998
2 56715  87.9107 235.5022 0002428 113.1851 246.9536 13.16595990147266
ONEWEB-0680             
1 56716U 23068G   26134.25958665  .00000061  00000+0  11596-3 0  9997
2 56716  87.9251 250.7199 0002130 116.6542 243.4811 13.21823636146619
ONEWEB-0681             
1 56717U 23068H   26134.31594550  .00002060  00000+0  49565-2 0  9991
2 56717  87.9247 250.7119 0003220  96.0501 264.1000 13.21814447146614
ONEWEB-0682             
1 56718U 23068J   26133.34948767  .00000137  00000+0  32871-3 0  9993
2 56718  87.8983 266.1363 0001977 115.4872 244.6463 13.15546530144877
